{
    "links": {
        "self": "http://www.neowsapp.com/rest/v1/neo/3719472?api_key=iIulBulltgU6a56xZRHN4H3l9WmuAYTsLGpBGhQ2"
    },
    "id": "3719472",
    "neo_reference_id": "3719472",
    "name": "(2015 KG19)",
    "designation": "2015 KG19",
    "nasa_jpl_url": "http://ssd.jpl.nasa.gov/sbdb.cgi?sstr=3719472",
    "absolute_magnitude_h": 23.3,
    "estimated_diameter": {
        "kilometers": {
            "estimated_diameter_min": 0.058150704,
            "estimated_diameter_max": 0.130028927
        },
        "meters": {
            "estimated_diameter_min": 58.1507039646,
            "estimated_diameter_max": 130.0289270043
        },
        "miles": {
            "estimated_diameter_min": 0.0361331611,
            "estimated_diameter_max": 0.0807962044
        },
        "feet": {
            "estimated_diameter_min": 190.7831555951,
            "estimated_diameter_max": 426.6041048727
        }
    },
    "is_potentially_hazardous_asteroid": false,
    "close_approach_data": [
        {
            "close_approach_date": "2010-09-29",
            "close_approach_date_full": "2010-Sep-29 17:50",
            "epoch_date_close_approach": 1285782600000,
            "relative_velocity": {
                "kilometers_per_second": "6.9654238668",
                "kilometers_per_hour": "25075.5259203144",
                "miles_per_hour": "15580.956647542"
            },
            "miss_distance": {
                "astronomical": "0.2790552625",
                "lunar": "108.5524971125",
                "kilometers": "41746072.882290875",
                "miles": "25939806.844229075"
            },
            "orbiting_body": "Earth"
        },
        {
            "close_approach_date": "2015-05-01",
            "close_approach_date_full": "2015-May-01 19:16",
            "epoch_date_close_approach": 1430507760000,
            "relative_velocity": {
                "kilometers_per_second": "7.2993057695",
                "kilometers_per_hour": "26277.500770379",
                "miles_per_hour": "16327.8170759058"
            },
            "miss_distance": {
                "astronomical": "0.1466996891",
                "lunar": "57.0661790599",
                "kilometers": "21945961.019022217",
                "miles": "13636587.8402399146"
            },
            "orbiting_body": "Earth"
        },
        {
            "close_approach_date": "2019-12-12",
            "close_approach_date_full": "2019-Dec-12 04:04",
            "epoch_date_close_approach": 1576123440000,
            "relative_velocity": {
                "kilometers_per_second": "7.0444304439",
                "kilometers_per_hour": "25359.9495982132",
                "miles_per_hour": "15757.6864600675"
            },
            "miss_distance": {
                "astronomical": "0.2858611832",
                "lunar": "111.2000002648",
                "kilometers": "42764224.122399784",
                "miles": "26572456.6884696592"
            },
            "orbiting_body": "Earth"
        },
        {
            "close_approach_date": "2024-10-20",
            "close_approach_date_full": "2024-Oct-20 11:45",
            "epoch_date_close_approach": 1729424700000,
            "relative_velocity": {
                "kilometers_per_second": "7.6133832683",
                "kilometers_per_hour": "27408.1797660327",
                "miles_per_hour": "17030.3770329552"
            },
            "miss_distance": {
                "astronomical": "0.2263200001",
                "lunar": "88.0384800389",
                "kilometers": "33856989.953359787",
                "miles": "21037758.0232155806"
            },
            "orbiting_body": "Earth"
        }
    ],
    "orbital_data": {
        "orbit_id": "7",
        "orbit_determination_date": "2017-04-06 08:33:39",
        "first_observation_date": "2015-05-19",
        "last_observation_date": "2015-06-07",
        "data_arc_in_days": 19,
        "observations_used": 22,
        "orbit_uncertainty": "7",
        "minimum_orbit_intersection": ".136318",
        "jupiter_tisserand_invariant": "5.356",
        "epoch_osculation": "2459000.5",
        "eccentricity": ".02364153051525057",
        "semi_major_axis": "1.172877679446157",
        "inclination": "14.25409253000761",
        "ascending_node_longitude": "224.301831014208",
        "orbital_period": "463.9567623277069",
        "perihelion_distance": "1.145149055996875",
        "perihelion_argument": "3.019112240862416",
        "aphelion_distance": "1.20060630289544",
        "perihelion_time": "2459010.983582092212",
        "mean_anomaly": "351.8654282906415",
        "mean_motion": ".7759343741297189",
        "equinox": "J2000",
        "orbit_class": {
            "orbit_class_type": "AMO",
            "orbit_class_description": "Near-Earth asteroid orbits similar to that of 1221 Amor",
            "orbit_class_range": "1.017 AU < q (perihelion) < 1.3 AU"
        }
    },
    "is_sentry_object": false
}